IRIDIUM 26              
1 24903U 97043A   25215.18351664  .00000295  00000+0  92729-4 0  9998
2 24903  86.3928  90.8769 0001956  83.8746 276.2674 14.37174273463963
IRIDIUM 22              
1 24907U 97043E   25215.15223290  .00000292  00000+0  93874-4 0  9991
2 24907  86.3936  94.4719 0002057  88.2211 271.9221 14.35983262463504
DUMMY MASS 1            
1 24925U 97048A   25214.31171861  .00000397  00000+0  41116-4 0  9997
2 24925  86.3352 114.0087 0006390   4.6251 355.5032 14.87018024511980
DUMMY MASS 2            
1 24926U 97048B   25215.49303412  .00000376  00000+0  39070-4 0  9990
2 24926  86.3353 115.0788 0007450   9.6824 350.4543 14.86770759512172
IRIDIUM 29              
1 24944U 97051A   25215.29773252  .00000374  00000+0  12082-3 0  9996
2 24944  86.3977 124.1464 0002329  88.3154 271.8310 14.36499904460250
IRIDIUM 33              
1 24946U 97051C   25215.19183720  .00000291  00000+0  95635-4 0  9996
2 24946  86.3894 123.4551 0005847 292.4340  67.6236 14.34917289459493
IRIDIUM 28              
1 24948U 97051E   25214.68460243  .00000313  00000+0  98252-4 0  9992
2 24948  86.3980 121.8929 0001741  77.4652 282.6741 14.37412907460591
IRIDIUM 36              
1 24967U 97056C   25214.36226330  .00000373  00000+0  11778-3 0  9993
2 24967  86.4019 153.6174 0002021  89.6976 270.4454 14.37639809458851
